*******************************************************************************
Ephemeris / WWW_USER Mon Mar 10 07:34:19 2025 Pasadena, USA      / Horizons    
*******************************************************************************
Target body name: Lemmon (C/2018 EF9)             {source: JPL#18}
Center body name: Earth (399)                     {source: DE441}
Center-site name: Mauna Kea
*******************************************************************************
Start time      : A.D. 2018-Nov-23 03:51:00.0000 UT      
Stop  time      : A.D. 2018-Nov-23 16:25:00.0000 UT      
Step-size       : 1 minutes
*******************************************************************************
Target pole/equ : undefined
Target radii    : undefined                                                    
Center geodetic : 204.5278, 19.8260847, 4.21024   {E-lon(deg),Lat(deg),Alt(km)}
Center cylindric: 204.5278, 6006.35451, 2151.0229 {E-lon(deg),Dxy(km),Dz(km)}
Center pole/equ : ITRF93                          {East-longitude positive}
Center radii    : 6378.137, 6378.137, 6356.752 km {Equator_a, b, pole_c}       
Target primary  : Sun
Vis. interferer : MOON (R_eq= 1737.400) km        {source: DE441}
Rel. light bend : Sun                             {source: DE441}
Rel. lght bnd GM: 1.3271E+11 km^3/s^2                                          
Small-body perts: Yes                             {source: SB441-N16}
Atmos refraction: NO (AIRLESS)
RA format       : HMS
Time format     : CAL 
Calendar mode   : Mixed Julian/Gregorian
RTS-only print  : NO       
EOP file        : eop.250307.p250603                                           
EOP coverage    : DATA-BASED 1962-JAN-20 TO 2025-MAR-07. PREDICTS-> 2025-JUN-02
Units conversion: 1 au= 149597870.700 km, c= 299792.458 km/s, 1 day= 86400.0 s 
Table cut-offs 1: Elevation (-90.0deg=NO ),Airmass (>38.000=NO), Daylight (YES)
Table cut-offs 2: Solar elongation (  0.0,180.0=NO ),Local Hour Angle( 0.0=NO )
Table cut-offs 3: RA/DEC angular rate (     0.0=NO )                           
*******************************************************************************
Initial IAU76/J2000 heliocentric ecliptic osculating elements (au, days, deg.):
  EPOCH=  2458226.5 ! 2018-Apr-18.0000000 (TDB)    RMSW= n.a.                  
   EC= .9975741722198472   QR= 1.55663257903246    TP= 2458261.6283815675      
   OM= 172.5780664128357   W= 72.61657512148747    IN= 84.69445280104227       
  Equivalent ICRF heliocentric cartesian coordinates (au, au/d):
   X=-1.091857230976521E+00  Y=-4.544188696153424E-01  Z= 1.120998862172552E+00
  VX= 1.630642470498751E-02 VY=-6.481787118028984E-03 VZ= 7.403953065693920E-03
Comet physical (GM= km^3/s^2; RAD= km):                                        
   GM= n.a.                RAD= n.a.                                           
   M1=  8.6      M2=  17.8     k1=  45.25  k2=  5.      PHCOF=  .030           
*******************************************************************************
 Date__(UT)__HR:MN     R.A._________(ICRF)_________DEC
******************************************************
$$SOE
 2018-Nov-23 10:06  m  21 28 05.624394 +10 33 39.83177
 2018-Nov-23 10:07  m  21 28 05.669515 +10 33 39.08818
 2018-Nov-23 10:08  m  21 28 05.714641 +10 33 38.34459
 2018-Nov-23 10:09  s  21 28 05.759771 +10 33 37.60103
 2018-Nov-23 10:10  m  21 28 05.804905 +10 33 36.85747
 2018-Nov-23 10:11  m  21 28 05.850043 +10 33 36.11393
 2018-Nov-23 10:12  m  21 28 05.895185 +10 33 35.37041
 2018-Nov-23 10:13  m  21 28 05.940330 +10 33 34.62689
 2018-Nov-23 10:14  m  21 28 05.985480 +10 33 33.88340
 2018-Nov-23 10:15  m  21 28 06.030634 +10 33 33.13991
 2018-Nov-23 10:16  m  21 28 06.075792 +10 33 32.39644
 2018-Nov-23 10:17  m  21 28 06.120954 +10 33 31.65299
 2018-Nov-23 10:18  m  21 28 06.166120 +10 33 30.90955
 2018-Nov-23 10:19  m  21 28 06.211289 +10 33 30.16612
 2018-Nov-23 10:20  m  21 28 06.256463 +10 33 29.42271
 2018-Nov-23 10:21  m  21 28 06.301641 +10 33 28.67931
 2018-Nov-23 10:22  m  21 28 06.346823 +10 33 27.93593
 2018-Nov-23 10:23  m  21 28 06.392008 +10 33 27.19256
 2018-Nov-23 10:24  m  21 28 06.437198 +10 33 26.44921
 2018-Nov-23 10:25  m  21 28 06.482391 +10 33 25.70587
 2018-Nov-23 10:26  m  21 28 06.527589 +10 33 24.96254
 2018-Nov-23 10:27  m  21 28 06.572791 +10 33 24.21923
 2018-Nov-23 10:28  m  21 28 06.617996 +10 33 23.47594
 2018-Nov-23 10:29  m  21 28 06.663205 +10 33 22.73266
 2018-Nov-23 10:30  m  21 28 06.708419 +10 33 21.98940
 2018-Nov-23 10:31  m  21 28 06.753636 +10 33 21.24615
 2018-Nov-23 10:32  m  21 28 06.798857 +10 33 20.50291
 2018-Nov-23 10:33  m  21 28 06.844083 +10 33 19.75969
 2018-Nov-23 10:34  m  21 28 06.889312 +10 33 19.01649
 2018-Nov-23 10:35  m  21 28 06.934545 +10 33 18.27330
 2018-Nov-23 10:36  m  21 28 06.979782 +10 33 17.53012
 2018-Nov-23 10:37  m  21 28 07.025023 +10 33 16.78696
 2018-Nov-23 10:38  m  21 28 07.070267 +10 33 16.04382
 2018-Nov-23 10:39  m  21 28 07.115516 +10 33 15.30069
 2018-Nov-23 10:40  m  21 28 07.160769 +10 33 14.55758
 2018-Nov-23 10:41  m  21 28 07.206025 +10 33 13.81448
 2018-Nov-23 10:42  m  21 28 07.251286 +10 33 13.07140
 2018-Nov-23 10:43  m  21 28 07.296550 +10 33 12.32833
 2018-Nov-23 10:44  m  21 28 07.341818 +10 33 11.58528
 2018-Nov-23 10:45  m  21 28 07.387090 +10 33 10.84225
 2018-Nov-23 10:46  m  21 28 07.432366 +10 33 10.09923
 2018-Nov-23 10:47  m  21 28 07.477646 +10 33 09.35622
 2018-Nov-23 10:48  m  21 28 07.522930 +10 33 08.61323
 2018-Nov-23 10:49  m  21 28 07.568218 +10 33 07.87026
 2018-Nov-23 10:50  m  21 28 07.613509 +10 33 07.12730
 2018-Nov-23 10:51  m  21 28 07.658804 +10 33 06.38436
 2018-Nov-23 10:52  m  21 28 07.704103 +10 33 05.64144
 2018-Nov-23 10:53  m  21 28 07.749406 +10 33 04.89853
 2018-Nov-23 10:54  m  21 28 07.794713 +10 33 04.15564
 2018-Nov-23 10:55  m  21 28 07.840024 +10 33 03.41276
 2018-Nov-23 10:56  m  21 28 07.885338 +10 33 02.66990
 2018-Nov-23 10:57  m  21 28 07.930657 +10 33 01.92705
 2018-Nov-23 10:58  m  21 28 07.975979 +10 33 01.18423
 2018-Nov-23 10:59  m  21 28 08.021305 +10 33 00.44141
 2018-Nov-23 11:00  m  21 28 08.066634 +10 32 59.69862
 2018-Nov-23 11:01  m  21 28 08.111968 +10 32 58.95584
 2018-Nov-23 11:02  m  21 28 08.157305 +10 32 58.21307
 2018-Nov-23 11:03  m  21 28 08.202646 +10 32 57.47033
 2018-Nov-23 11:04  m  21 28 08.247991 +10 32 56.72760
 2018-Nov-23 11:05  m  21 28 08.293340 +10 32 55.98488
 2018-Nov-23 11:06  m  21 28 08.338692 +10 32 55.24219
 2018-Nov-23 11:07  m  21 28 08.384049 +10 32 54.49951
 2018-Nov-23 11:08  m  21 28 08.429408 +10 32 53.75684
 2018-Nov-23 11:09  m  21 28 08.474772 +10 32 53.01419
 2018-Nov-23 11:10  m  21 28 08.520140 +10 32 52.27156
 2018-Nov-23 11:11  m  21 28 08.565511 +10 32 51.52895
 2018-Nov-23 11:12  m  21 28 08.610886 +10 32 50.78635
 2018-Nov-23 11:13  m  21 28 08.656264 +10 32 50.04377
 2018-Nov-23 11:14  m  21 28 08.701647 +10 32 49.30121
 2018-Nov-23 11:15  m  21 28 08.747033 +10 32 48.55866
 2018-Nov-23 11:16  m  21 28 08.792422 +10 32 47.81613
 2018-Nov-23 11:17  m  21 28 08.837816 +10 32 47.07362
 2018-Nov-23 11:18  m  21 28 08.883213 +10 32 46.33112
 2018-Nov-23 11:19  m  21 28 08.928614 +10 32 45.58864
 2018-Nov-23 11:20  m  21 28 08.974018 +10 32 44.84618
 2018-Nov-23 11:21  m  21 28 09.019426 +10 32 44.10374
 2018-Nov-23 11:22  m  21 28 09.064838 +10 32 43.36131
 2018-Nov-23 11:23  m  21 28 09.110254 +10 32 42.61890
 2018-Nov-23 11:24  m  21 28 09.155673 +10 32 41.87651
 2018-Nov-23 11:25  m  21 28 09.201095 +10 32 41.13414
 2018-Nov-23 11:26  m  21 28 09.246522 +10 32 40.39178
 2018-Nov-23 11:27  m  21 28 09.291952 +10 32 39.64944
 2018-Nov-23 11:28  m  21 28 09.337385 +10 32 38.90712
 2018-Nov-23 11:29  m  21 28 09.382823 +10 32 38.16481
 2018-Nov-23 11:30  m  21 28 09.428263 +10 32 37.42252
 2018-Nov-23 11:31  m  21 28 09.473708 +10 32 36.68025
 2018-Nov-23 11:32  m  21 28 09.519156 +10 32 35.93800
 2018-Nov-23 11:33  m  21 28 09.564607 +10 32 35.19577
 2018-Nov-23 11:34  m  21 28 09.610062 +10 32 34.45355
 2018-Nov-23 11:35  m  21 28 09.655521 +10 32 33.71135
 2018-Nov-23 11:36  m  21 28 09.700983 +10 32 32.96917
 2018-Nov-23 11:37  m  21 28 09.746449 +10 32 32.22701
 2018-Nov-23 11:38  m  21 28 09.791918 +10 32 31.48486
 2018-Nov-23 11:39  m  21 28 09.837391 +10 32 30.74273
 2018-Nov-23 11:40  m  21 28 09.882867 +10 32 30.00062
 2018-Nov-23 11:41  m  21 28 09.928347 +10 32 29.25853
 2018-Nov-23 11:42  m  21 28 09.973831 +10 32 28.51646
 2018-Nov-23 11:43  m  21 28 10.019317 +10 32 27.77440
 2018-Nov-23 11:44  m  21 28 10.064808 +10 32 27.03237
 2018-Nov-23 11:45  m  21 28 10.110301 +10 32 26.29035
 2018-Nov-23 11:46  m  21 28 10.155799 +10 32 25.54835
 2018-Nov-23 11:47  m  21 28 10.201299 +10 32 24.80636
 2018-Nov-23 11:48  m  21 28 10.246803 +10 32 24.06440
 2018-Nov-23 11:49  m  21 28 10.292311 +10 32 23.32245
 2018-Nov-23 11:50  m  21 28 10.337822 +10 32 22.58053
 2018-Nov-23 11:51  m  21 28 10.383336 +10 32 21.83862
 2018-Nov-23 11:52  m  21 28 10.428854 +10 32 21.09673
 2018-Nov-23 11:53  m  21 28 10.474375 +10 32 20.35485
 2018-Nov-23 11:54  m  21 28 10.519900 +10 32 19.61300
 2018-Nov-23 11:55  m  21 28 10.565428 +10 32 18.87117
 2018-Nov-23 11:56  m  21 28 10.610959 +10 32 18.12935
 2018-Nov-23 11:57  m  21 28 10.656494 +10 32 17.38755
 2018-Nov-23 11:58  m  21 28 10.702032 +10 32 16.64577
 2018-Nov-23 11:59  m  21 28 10.747573 +10 32 15.90401
 2018-Nov-23 12:00  m  21 28 10.793118 +10 32 15.16227
 2018-Nov-23 12:01  m  21 28 10.838666 +10 32 14.42055
 2018-Nov-23 12:02  m  21 28 10.884217 +10 32 13.67884
 2018-Nov-23 12:03  m  21 28 10.929772 +10 32 12.93716
 2018-Nov-23 12:04  m  21 28 10.975330 +10 32 12.19549
 2018-Nov-23 12:05  m  21 28 11.020891 +10 32 11.45385
 2018-Nov-23 12:06  m  21 28 11.066455 +10 32 10.71222
 2018-Nov-23 12:07  m  21 28 11.112023 +10 32 09.97061
 2018-Nov-23 12:08  m  21 28 11.157594 +10 32 09.22902
 2018-Nov-23 12:09  m  21 28 11.203168 +10 32 08.48745
 2018-Nov-23 12:10  m  21 28 11.248746 +10 32 07.74590
